{
  "norad_id": 46749,
  "name": "STARLINK-1911",
  "history": [
    {
      "epoch": "2026-04-30T16:00:03.000096Z",
      "apogee_km": 299.0427174417382,
      "perigee_km": 291.45761212250363,
      "latitude_deg": -9.824464969441896,
      "longitude_deg": -88.76221009498919,
      "height_km": 301.70376297496153,
      "semi_major_axis_km": 6673.387164782121,
      "eccentricity": 0.00056831,
      "inclination_deg": 53.0411,
      "raan_deg": 17.3047,
      "arg_perigee_deg": 176.2643,
      "mean_anomaly_deg": 171.573,
      "mean_motion_rev_day": 15.92514075
    }
  ]
}